[Satellite]
VERSION=1.1
NAME=TDRS 3
NICKNAME=TDRS 3
TLE1=1 19548U 88091B   17186.16314140 -.00000308  00000-0  00000-0 0  9998
TLE2=2 19548  14.4432   7.7811 0033829 314.5144 317.3867  1.00267091 92628
